PANDORA
1 67395U 80229J   26108.60888889  .00000000  00000-0  37770-3 0    03
2 67395  97.8030 108.1969 0004531 339.7802 114.1328 14.87973622    07
